[{"OBJECT_NAME":"BEIDOU-3 G1 (C59)","OBJECT_ID":"2018-085A","EPOCH":"2026-03-03T23:17:51.072864","MEAN_MOTION":1.00268635,"ECCENTRICITY":0.00013385,"INCLINATION":2.8094,"RA_OF_ASC_NODE":100.3977,"ARG_OF_PERICENTER":25.9215,"MEAN_ANOMALY":164.9072,"EPHEMERIS_TYPE":0,"CLASSIFICATION_TYPE":"U","NORAD_CAT_ID":43683,"ELEMENT_SET_NO":999,"REV_AT_EPOCH":2700,"BSTAR":0,"MEAN_MOTION_DOT":-2.9e-6,"MEAN_MOTION_DDOT":0},{"OBJECT_NAME":"COSMOS 2529 (757)","OBJECT_ID":"2018-086A","EPOCH":"2026-02-27T08:59:15.336384","MEAN_MOTION":2.1310188,"ECCENTRICITY":0.00079597,"INCLINATION":64.2955,"RA_OF_ASC_NODE":196.2992,"ARG_OF_PERICENTER":253.0448,"MEAN_ANOMALY":106.8346,"EPHEMERIS_TYPE":0,"CLASSIFICATION_TYPE":"U","NORAD_CAT_ID":43687,"ELEMENT_SET_NO":999,"REV_AT_EPOCH":5694,"BSTAR":0,"MEAN_MOTION_DOT":8.0e-8,"MEAN_MOTION_DDOT":0},{"OBJECT_NAME":"BEIDOU-3 M17 (C36)","OBJECT_ID":"2018-093A","EPOCH":"2026-03-02T11:14:19.656384","MEAN_MOTION":1.86228347,"ECCENTRICITY":0.00069943,"INCLINATION":54.1714,"RA_OF_ASC_NODE":185.9163,"ARG_OF_PERICENTER":297.4131,"MEAN_ANOMALY":70.7484,"EPHEMERIS_TYPE":0,"CLASSIFICATION_TYPE":"U","NORAD_CAT_ID":43706,"ELEMENT_SET_NO":999,"REV_AT_EPOCH":4955,"BSTAR":0,"MEAN_MOTION_DOT":-2.6e-7,"MEAN_MOTION_DDOT":0},{"OBJECT_NAME":"BEIDOU-3 M18 (C37)","OBJECT_ID":"2018-093B","EPOCH":"2026-03-02T07:38:17.290752","MEAN_MOTION":1.86226384,"ECCENTRICITY":0.000602,"INCLINATION":54.1724,"RA_OF_ASC_NODE":185.9133,"ARG_OF_PERICENTER":341.6195,"MEAN_ANOMALY":18.311,"EPHEMERIS_TYPE":0,"CLASSIFICATION_TYPE":"U","NORAD_CAT_ID":43707,"ELEMENT_SET_NO":999,"REV_AT_EPOCH":4954,"BSTAR":0,"MEAN_MOTION_DOT":-2.8e-7,"MEAN_MOTION_DDOT":0},{"OBJECT_NAME":"GPS BIII-1  (PRN 04)","OBJECT_ID":"2018-109A","EPOCH":"2026-03-03T13:16:28.837920","MEAN_MOTION":2.00556711,"ECCENTRICITY":0.0037895,"INCLINATION":55.6145,"RA_OF_ASC_NODE":96.3528,"ARG_OF_PERICENTER":198.2737,"MEAN_ANOMALY":333.998,"EPHEMERIS_TYPE":0,"CLASSIFICATION_TYPE":"U","NORAD_CAT_ID":43873,"ELEMENT_SET_NO":999,"REV_AT_EPOCH":5295,"BSTAR":0,"MEAN_MOTION_DOT":1.9e-7,"MEAN_MOTION_DDOT":0},{"OBJECT_NAME":"BEIDOU-3 IGSO-1 (C38)","OBJECT_ID":"2019-023A","EPOCH":"2026-03-03T19:46:48.267264","MEAN_MOTION":1.00271041,"ECCENTRICITY":0.00260079,"INCLINATION":58.5529,"RA_OF_ASC_NODE":38.7313,"ARG_OF_PERICENTER":236.5299,"MEAN_ANOMALY":302.2114,"EPHEMERIS_TYPE":0,"CLASSIFICATION_TYPE":"U","NORAD_CAT_ID":44204,"ELEMENT_SET_NO":999,"REV_AT_EPOCH":615,"BSTAR":0,"MEAN_MOTION_DOT":-2.06e-6,"MEAN_MOTION_DDOT":0},{"OBJECT_NAME":"BEIDOU-2 G8 (C01)","OBJECT_ID":"2019-027A","EPOCH":"2026-03-03T09:37:45.541920","MEAN_MOTION":1.00268063,"ECCENTRICITY":0.00092717,"INCLINATION":1.8655,"RA_OF_ASC_NODE":74.73,"ARG_OF_PERICENTER":269.3734,"MEAN_ANOMALY":105.9868,"EPHEMERIS_TYPE":0,"CLASSIFICATION_TYPE":"U","NORAD_CAT_ID":44231,"ELEMENT_SET_NO":999,"REV_AT_EPOCH":2502,"BSTAR":0,"MEAN_MOTION_DOT":-2.62e-6,"MEAN_MOTION_DDOT":0},{"OBJECT_NAME":"COSMOS 2534 (758)","OBJECT_ID":"2019-030A","EPOCH":"2026-03-03T15:42:21.406752","MEAN_MOTION":2.13102169,"ECCENTRICITY":0.0009568,"INCLINATION":64.3688,"RA_OF_ASC_NODE":196.1668,"ARG_OF_PERICENTER":280.0385,"MEAN_ANOMALY":257.7323,"EPHEMERIS_TYPE":0,"CLASSIFICATION_TYPE":"U","NORAD_CAT_ID":44299,"ELEMENT_SET_NO":999,"REV_AT_EPOCH":5267,"BSTAR":0,"MEAN_MOTION_DOT":-4.0e-8,"MEAN_MOTION_DDOT":0},{"OBJECT_NAME":"BEIDOU-3 IGSO-2 (C39)","OBJECT_ID":"2019-035A","EPOCH":"2026-02-26T16:31:51.989952","MEAN_MOTION":1.00247364,"ECCENTRICITY":0.00387345,"INCLINATION":55.2338,"RA_OF_ASC_NODE":159.8353,"ARG_OF_PERICENTER":206.4752,"MEAN_ANOMALY":153.7223,"EPHEMERIS_TYPE":0,"CLASSIFICATION_TYPE":"U","NORAD_CAT_ID":44337,"ELEMENT_SET_NO":999,"REV_AT_EPOCH":2456,"BSTAR":0,"MEAN_MOTION_DOT":-1.76e-6,"MEAN_MOTION_DDOT":0},{"OBJECT_NAME":"GPS BIII-2  (PRN 18)","OBJECT_ID":"2019-056A","EPOCH":"2026-03-03T04:35:28.842720","MEAN_MOTION":2.00568213,"ECCENTRICITY":0.0058023,"INCLINATION":55.6853,"RA_OF_ASC_NODE":335.3576,"ARG_OF_PERICENTER":198.177,"MEAN_ANOMALY":333.1087,"EPHEMERIS_TYPE":0,"CLASSIFICATION_TYPE":"U","NORAD_CAT_ID":44506,"ELEMENT_SET_NO":999,"REV_AT_EPOCH":4794,"BSTAR":0,"MEAN_MOTION_DOT":-9.8e-7,"MEAN_MOTION_DDOT":0},{"OBJECT_NAME":"BEIDOU-3 M24 (C46)","OBJECT_ID":"2019-061A","EPOCH":"2026-03-03T11:05:32.553312","MEAN_MOTION":1.86228787,"ECCENTRICITY":0.00086079,"INCLINATION":54.3994,"RA_OF_ASC_NODE":186.2929,"ARG_OF_PERICENTER":21.3432,"MEAN_ANOMALY":338.6489,"EPHEMERIS_TYPE":0,"CLASSIFICATION_TYPE":"U","NORAD_CAT_ID":44542,"ELEMENT_SET_NO":999,"REV_AT_EPOCH":4382,"BSTAR":0,"MEAN_MOTION_DOT":-1.7e-7,"MEAN_MOTION_DDOT":0},{"OBJECT_NAME":"BEIDOU-3 M23 (C45)","OBJECT_ID":"2019-061B","EPOCH":"2026-03-03T07:40:19.297056","MEAN_MOTION":1.8622717,"ECCENTRICITY":0.00050771,"INCLINATION":54.3976,"RA_OF_ASC_NODE":186.266,"ARG_OF_PERICENTER":14.221,"MEAN_ANOMALY":162.4807,"EPHEMERIS_TYPE":0,"CLASSIFICATION_TYPE":"U","NORAD_CAT_ID":44543,"ELEMENT_SET_NO":999,"REV_AT_EPOCH":4382,"BSTAR":0,"MEAN_MOTION_DOT":-1.8e-7,"MEAN_MOTION_DDOT":0},{"OBJECT_NAME":"EUTELSAT 5 WEST B (EGNOS/PRN 121)","OBJECT_ID":"2019-067A","EPOCH":"2026-03-03T22:25:38.665056","MEAN_MOTION":1.00272534,"ECCENTRICITY":0.00032055,"INCLINATION":0.096,"RA_OF_ASC_NODE":309.7842,"ARG_OF_PERICENTER":41.6125,"MEAN_ANOMALY":141.6667,"EPHEMERIS_TYPE":0,"CLASSIFICATION_TYPE":"U","NORAD_CAT_ID":44624,"ELEMENT_SET_NO":999,"REV_AT_EPOCH":2338,"BSTAR":0,"MEAN_MOTION_DOT":-5.6e-7,"MEAN_MOTION_DDOT":0},{"OBJECT_NAME":"BEIDOU-3 IGSO-3 (C40)","OBJECT_ID":"2019-073A","EPOCH":"2026-03-03T00:07:19.211808","MEAN_MOTION":1.00269768,"ECCENTRICITY":0.00404892,"INCLINATION":54.9806,"RA_OF_ASC_NODE":282.0451,"ARG_OF_PERICENTER":189.0046,"MEAN_ANOMALY":170.9845,"EPHEMERIS_TYPE":0,"CLASSIFICATION_TYPE":"U","NORAD_CAT_ID":44709,"ELEMENT_SET_NO":999,"REV_AT_EPOCH":2339,"BSTAR":0,"MEAN_MOTION_DOT":-1.54e-6,"MEAN_MOTION_DDOT":0},{"OBJECT_NAME":"BEIDOU-3 M22 (C44)","OBJECT_ID":"2019-078A","EPOCH":"2026-02-28T01:54:59.619744","MEAN_MOTION":1.86231871,"ECCENTRICITY":0.00072213,"INCLINATION":54.0347,"RA_OF_ASC_NODE":303.6688,"ARG_OF_PERICENTER":34.9561,"MEAN_ANOMALY":325.1493,"EPHEMERIS_TYPE":0,"CLASSIFICATION_TYPE":"U","NORAD_CAT_ID":44793,"ELEMENT_SET_NO":999,"REV_AT_EPOCH":4261,"BSTAR":0,"MEAN_MOTION_DOT":-3.9e-7,"MEAN_MOTION_DDOT":0},{"OBJECT_NAME":"BEIDOU-3 M21 (C43)","OBJECT_ID":"2019-078B","EPOCH":"2026-03-03T10:35:11.477184","MEAN_MOTION":1.86227535,"ECCENTRICITY":0.00058853,"INCLINATION":54.0047,"RA_OF_ASC_NODE":303.5128,"ARG_OF_PERICENTER":39.3589,"MEAN_ANOMALY":320.7432,"EPHEMERIS_TYPE":0,"CLASSIFICATION_TYPE":"U","NORAD_CAT_ID":44794,"ELEMENT_SET_NO":999,"REV_AT_EPOCH":4268,"BSTAR":0,"MEAN_MOTION_DOT":-5.5e-7,"MEAN_MOTION_DDOT":0},{"OBJECT_NAME":"COSMOS 2544 (759)","OBJECT_ID":"2019-088A","EPOCH":"2026-03-03T10:41:32.430336","MEAN_MOTION":2.1310181,"ECCENTRICITY":0.00157445,"INCLINATION":65.5052,"RA_OF_ASC_NODE":77.2588,"ARG_OF_PERICENTER":259.4507,"MEAN_ANOMALY":100.4201,"EPHEMERIS_TYPE":0,"CLASSIFICATION_TYPE":"U","NORAD_CAT_ID":44850,"ELEMENT_SET_NO":999,"REV_AT_EPOCH":4846,"BSTAR":0,"MEAN_MOTION_DOT":2.4e-7,"MEAN_MOTION_DDOT":0}]
